[{"OBJECT_NAME":"GLOBALSTAR M097","OBJECT_ID":"2013-005A","EPOCH":"2026-03-09T15:03:50.861664","MEAN_MOTION":12.62265747,"ECCENTRICITY":8.73e-5,"INCLINATION":52.0042,"RA_OF_ASC_NODE":186.3995,"ARG_OF_PERICENTER":114.1777,"MEAN_ANOMALY":245.9181,"EPHEMERIS_TYPE":0,"CLASSIFICATION_TYPE":"U","NORAD_CAT_ID":39072,"ELEMENT_SET_NO":999,"REV_AT_EPOCH":60433,"BSTAR":0.00029056,"MEAN_MOTION_DOT":-5.2e-7,"MEAN_MOTION_DDOT":0},{"OBJECT_NAME":"COSMOS 2166","OBJECT_ID":"1991-077B","EPOCH":"2026-03-09T17:43:57.489312","MEAN_MOTION":12.63445868,"ECCENTRICITY":0.0004036,"INCLINATION":82.5999,"RA_OF_ASC_NODE":309.7347,"ARG_OF_PERICENTER":35.4906,"MEAN_ANOMALY":26.4946,"EPHEMERIS_TYPE":0,"CLASSIFICATION_TYPE":"U","NORAD_CAT_ID":21780,"ELEMENT_SET_NO":999,"REV_AT_EPOCH":58261,"BSTAR":4.778078e-5,"MEAN_MOTION_DOT":1.9e-7,"MEAN_MOTION_DDOT":0}]
